{
  "type": "FeatureCollection",
  "features": [
    {
      "type": "Feature",
      "properties": {
        "norad_id": 34681,
        "name": "COSMOS 2251 DEB",
        "group": "cosmos-2251-debris",
        "lat": 7.80840025941557,
        "lon": -73.53967724515519,
        "alt_km": 604.6584404062978,
        "timestamp": "2025-12-15T20:48:54.279296+00:00",
        "meta_object_name": "COSMOS 2251 DEB",
        "meta_object_id": "1993-036YB",
        "meta_epoch": "2025-12-14T22:25:05.049408",
        "meta_mean_motion": 14.83277091,
        "meta_eccentricity": 0.00256477,
        "meta_inclination": 74.0626,
        "meta_ra_of_asc_node": 286.0584,
        "meta_arg_of_pericenter": 342.5581,
        "meta_mean_anomaly": 84.4693,
        "meta_ephemeris_type": 0,
        "meta_classification_type": "U",
        "meta_norad_cat_id": 34681,
        "meta_element_set_no": 999,
        "meta_rev_at_epoch": 89303,
        "meta_bstar": 0.00097630055,
        "meta_mean_motion_dot": 8.008e-05,
        "meta_mean_motion_ddot": 0,
        "tle_line1": "1 34681U 93036YB  25348.93408622  .00008008  00000+0  97630-3 0  9992",
        "tle_line2": "2 34681  74.0626 286.0584 0025647 342.5581  84.4693 14.83277091893033"
      },
      "geometry": {
        "type": "Point",
        "coordinates": [
          -73.53967724515519,
          7.80840025941557
        ]
      }
    },
    {
      "type": "Feature",
      "properties": {
        "norad_id": 34682,
        "name": "COSMOS 2251 DEB",
        "group": "cosmos-2251-debris",
        "lat": -27.11489228720967,
        "lon": -94.54146956573912,
        "alt_km": 689.1664404075627,
        "timestamp": "2025-12-15T20:48:54.279306+00:00",
        "meta_object_name": "COSMOS 2251 DEB",
        "meta_object_id": "1993-036YC",
        "meta_epoch": "2025-12-14T23:00:35.078976",
        "meta_mean_motion": 14.58914712,
        "meta_eccentricity": 0.00182417,
        "meta_inclination": 74.0399,
        "meta_ra_of_asc_node": 78.7616,
        "meta_arg_of_pericenter": 211.5686,
        "meta_mean_anomaly": 266.7627,
        "meta_ephemeris_type": 0,
        "meta_classification_type": "U",
        "meta_norad_cat_id": 34682,
        "meta_element_set_no": 999,
        "meta_rev_at_epoch": 88718,
        "meta_bstar": 0.00054529594,
        "meta_mean_motion_dot": 2.533e-05,
        "meta_mean_motion_ddot": 0,
        "tle_line1": "1 34682U 93036YC  25348.95873934  .00002533  00000+0  54530-3 0  9996",
        "tle_line2": "2 34682  74.0399  78.7616 0018241 211.5686 266.7627 14.58914712887187"
      },
      "geometry": {
        "type": "Point",
        "coordinates": [
          -94.54146956573912,
          -27.11489228720967
        ]
      }
    },
    {
      "type": "Feature",
      "properties": {
        "norad_id": 34683,
        "name": "COSMOS 2251 DEB",
        "group": "cosmos-2251-debris",
        "lat": 59.421524658584254,
        "lon": 115.24588024712496,
        "alt_km": 681.8408179158014,
        "timestamp": "2025-12-15T20:48:54.279316+00:00",
        "meta_object_name": "COSMOS 2251 DEB",
        "meta_object_id": "1993-036YD",
        "meta_epoch": "2025-12-14T17:23:41.537184",
        "meta_mean_motion": 14.6452262,
        "meta_eccentricity": 0.00181016,
        "meta_inclination": 74.0289,
        "meta_ra_of_asc_node": 88.4507,
        "meta_arg_of_pericenter": 203.429,
        "meta_mean_anomaly": 319.1681,
        "meta_ephemeris_type": 0,
        "meta_classification_type": "U",
        "meta_norad_cat_id": 34683,
        "meta_element_set_no": 999,
        "meta_rev_at_epoch": 88377,
        "meta_bstar": 0.0011210235,
        "meta_mean_motion_dot": 5.932e-05,
        "meta_mean_motion_ddot": 0,
        "tle_line1": "1 34683U 93036YD  25348.72478631  .00005932  00000+0  11210-2 0  9990",
        "tle_line2": "2 34683  74.0289  88.4507 0018101 203.4290 319.1681 14.64522620883773"
      },
      "geometry": {
        "type": "Point",
        "coordinates": [
          115.24588024712496,
          59.421524658584254
        ]
      }
    },
    {
      "type": "Feature",
      "properties": {
        "norad_id": 34685,
        "name": "COSMOS 2251 DEB",
        "group": "cosmos-2251-debris",
        "lat": 42.135695873451944,
        "lon": -52.18029358350799,
        "alt_km": 700.9878022603762,
        "timestamp": "2025-12-15T20:48:54.279326+00:00",
        "meta_object_name": "COSMOS 2251 DEB",
        "meta_object_id": "1993-036YF",
        "meta_epoch": "2025-12-14T20:04:00.127776",
        "meta_mean_motion": 14.57529513,
        "meta_eccentricity": 0.00142568,
        "meta_inclination": 74.0287,
        "meta_ra_of_asc_node": 144.7963,
        "meta_arg_of_pericenter": 249.0273,
        "meta_mean_anomaly": 238.274,
        "meta_ephemeris_type": 0,
        "meta_classification_type": "U",
        "meta_norad_cat_id": 34685,
        "meta_element_set_no": 999,
        "meta_rev_at_epoch": 88562,
        "meta_bstar": 0.00076385222,
        "meta_mean_motion_dot": 3.451e-05,
        "meta_mean_motion_ddot": 0,
        "tle_line1": "1 34685U 93036YF  25348.83611259  .00003451  00000+0  76385-3 0  9998",
        "tle_line2": "2 34685  74.0287 144.7963 0014256 249.0273 238.2740 14.57529513885622"
      },
      "geometry": {
        "type": "Point",
        "coordinates": [
          -52.18029358350799,
          42.135695873451944
        ]
      }
    },
    {
      "type": "Feature",
      "properties": {
        "norad_id": 34689,
        "name": "COSMOS 2251 DEB",
        "group": "cosmos-2251-debris",
        "lat": 70.42172761442902,
        "lon": -15.351403445038478,
        "alt_km": 1035.7409348842548,
        "timestamp": "2025-12-15T20:48:54.279336+00:00",
        "meta_object_name": "COSMOS 2251 DEB",
        "meta_object_id": "1993-036YK",
        "meta_epoch": "2025-12-14T17:15:19.046880",
        "meta_mean_motion": 14.0448432,
        "meta_eccentricity": 0.02276472,
        "meta_inclination": 74.0918,
        "meta_ra_of_asc_node": 219.9541,
        "meta_arg_of_pericenter": 288.4174,
        "meta_mean_anomaly": 129.0583,
        "meta_ephemeris_type": 0,
        "meta_classification_type": "U",
        "meta_norad_cat_id": 34689,
        "meta_element_set_no": 999,
        "meta_rev_at_epoch": 84369,
        "meta_bstar": 0.0026731175,
        "meta_mean_motion_dot": 5.351e-05,
        "meta_mean_motion_ddot": 0,
        "tle_line1": "1 34689U 93036YK  25348.71897045  .00005351  00000+0  26731-2 0  9998",
        "tle_line2": "2 34689  74.0918 219.9541 0227647 288.4174 129.0583 14.04484320843692"
      },
      "geometry": {
        "type": "Point",
        "coordinates": [
          -15.351403445038478,
          70.42172761442902
        ]
      }
    },
    {
      "type": "Feature",
      "properties": {
        "norad_id": 34721,
        "name": "COSMOS 2251 DEB",
        "group": "cosmos-2251-debris",
        "lat": 44.799702350813774,
        "lon": -22.535898981453844,
        "alt_km": 1037.5310547101562,
        "timestamp": "2025-12-15T20:48:54.279346+00:00",
        "meta_object_name": "COSMOS 2251 DEB",
        "meta_object_id": "1993-036YP",
        "meta_epoch": "2025-12-14T22:23:16.575072",
        "meta_mean_motion": 13.96864168,
        "meta_eccentricity": 0.0223519,
        "meta_inclination": 73.9235,
        "meta_ra_of_asc_node": 322.4443,
        "meta_arg_of_pericenter": 261.0082,
        "meta_mean_anomaly": 127.5066,
        "meta_ephemeris_type": 0,
        "meta_classification_type": "U",
        "meta_norad_cat_id": 34721,
        "meta_element_set_no": 999,
        "meta_rev_at_epoch": 85180,
        "meta_bstar": 0.0010575328,
        "meta_mean_motion_dot": 1.791e-05,
        "meta_mean_motion_ddot": 0,
        "tle_line1": "1 34721U 93036YP  25348.93283073  .00001791  00000+0  10575-2 0  9992",
        "tle_line2": "2 34721  73.9235 322.4443 0223519 261.0082 127.5066 13.96864168851802"
      },
      "geometry": {
        "type": "Point",
        "coordinates": [
          -22.535898981453844,
          44.799702350813774
        ]
      }
    },
    {
      "type": "Feature",
      "properties": {
        "norad_id": 34722,
        "name": "COSMOS 2251 DEB",
        "group": "cosmos-2251-debris",
        "lat": 71.5718151211431,
        "lon": 30.753851710760323,
        "alt_km": 965.6940067781079,
        "timestamp": "2025-12-15T20:48:54.279356+00:00",
        "meta_object_name": "COSMOS 2251 DEB",
        "meta_object_id": "1993-036YQ",
        "meta_epoch": "2025-12-14T09:26:45.655872",
        "meta_mean_motion": 14.11941622,
        "meta_eccentricity": 0.01670711,
        "meta_inclination": 73.8733,
        "meta_ra_of_asc_node": 333.1181,
        "meta_arg_of_pericenter": 258.3938,
        "meta_mean_anomaly": 254.825,
        "meta_ephemeris_type": 0,
        "meta_classification_type": "U",
        "meta_norad_cat_id": 34722,
        "meta_element_set_no": 999,
        "meta_rev_at_epoch": 86268,
        "meta_bstar": 0.00097278289,
        "meta_mean_motion_dot": 2.002e-05,
        "meta_mean_motion_ddot": 0,
        "tle_line1": "1 34722U 93036YQ  25348.39358398  .00002002  00000+0  97278-3 0  9998",
        "tle_line2": "2 34722  73.8733 333.1181 0167071 258.3938 254.8250 14.11941622862688"
      },
      "geometry": {
        "type": "Point",
        "coordinates": [
          30.753851710760323,
          71.5718151211431
        ]
      }
    }
  ]
}